CCSDS_OMM_VERS = 2.0
CREATION_DATE  = 
ORIGINATOR     = 

OBJECT_NAME    = CZ-2C R/B
OBJECT_ID      = 2022-132E
CENTER_NAME    = EARTH
REF_FRAME      = TEME
TIME_SYSTEM    = UTC
MEAN_ELEMENT_THEORY = SGP/SGP4

EPOCH          = 2025-12-14T22:09:37.162656
MEAN_MOTION    = 15.54965395
ECCENTRICITY   = .00227696
INCLINATION    = 97.2943
RA_OF_ASC_NODE = 345.1637
ARG_OF_PERICENTER = 49.9747
MEAN_ANOMALY   = 310.3501

EPHEMERIS_TYPE = 0
CLASSIFICATION_TYPE = U
NORAD_CAT_ID   = 54039
ELEMENT_SET_NO = 999
REV_AT_EPOCH   = 17717
BSTAR          = .36342635E-3
MEAN_MOTION_DOT = .24548E-3
MEAN_MOTION_DDOT = 0

CCSDS_OMM_VERS = 2.0
CREATION_DATE  = 
ORIGINATOR     = 

OBJECT_NAME    = GSLV R/B
OBJECT_ID      = 2022-138AN
CENTER_NAME    = EARTH
REF_FRAME      = TEME
TIME_SYSTEM    = UTC
MEAN_ELEMENT_THEORY = SGP/SGP4

EPOCH          = 2025-12-14T20:41:41.815392
MEAN_MOTION    = 14.96144796
ECCENTRICITY   = .00241819
INCLINATION    = 87.3830
RA_OF_ASC_NODE = 194.7635
ARG_OF_PERICENTER = 98.5646
MEAN_ANOMALY   = 261.8327

EPHEMERIS_TYPE = 0
CLASSIFICATION_TYPE = U
NORAD_CAT_ID   = 54149
ELEMENT_SET_NO = 999
REV_AT_EPOCH   = 17124
BSTAR          = .22306807E-3
MEAN_MOTION_DOT = .2553E-4
MEAN_MOTION_DDOT = 0

CCSDS_OMM_VERS = 2.0
CREATION_DATE  = 
ORIGINATOR     = 

OBJECT_NAME    = XRISM
OBJECT_ID      = 2023-137A
CENTER_NAME    = EARTH
REF_FRAME      = TEME
TIME_SYSTEM    = UTC
MEAN_ELEMENT_THEORY = SGP/SGP4

EPOCH          = 2025-12-14T16:25:55.023168
MEAN_MOTION    = 15.10360626
ECCENTRICITY   = .00077195
INCLINATION    = 31.0013
RA_OF_ASC_NODE = 112.9852
ARG_OF_PERICENTER = 265.0839
MEAN_ANOMALY   = 94.8918

EPHEMERIS_TYPE = 0
CLASSIFICATION_TYPE = U
NORAD_CAT_ID   = 57800
ELEMENT_SET_NO = 999
REV_AT_EPOCH   = 12492
BSTAR          = .25840584E-3
MEAN_MOTION_DOT = .4443E-4
MEAN_MOTION_DDOT = 0

CCSDS_OMM_VERS = 2.0
CREATION_DATE  = 
ORIGINATOR     = 

OBJECT_NAME    = ACS3
OBJECT_ID      = 2024-077B
CENTER_NAME    = EARTH
REF_FRAME      = TEME
TIME_SYSTEM    = UTC
MEAN_ELEMENT_THEORY = SGP/SGP4

EPOCH          = 2025-12-14T22:05:21.063552
MEAN_MOTION    = 13.85612488
ECCENTRICITY   = .00770959
INCLINATION    = 97.2653
RA_OF_ASC_NODE = 304.0397
ARG_OF_PERICENTER = 333.1816
MEAN_ANOMALY   = 26.5368

EPHEMERIS_TYPE = 0
CLASSIFICATION_TYPE = U
NORAD_CAT_ID   = 59588
ELEMENT_SET_NO = 999
REV_AT_EPOCH   = 8244
BSTAR          = .19361815E-1
MEAN_MOTION_DOT = .22676E-3
MEAN_MOTION_DDOT = 0

CCSDS_OMM_VERS = 2.0
CREATION_DATE  = 
ORIGINATOR     = 

OBJECT_NAME    = SZ-21 MODULE
OBJECT_ID      = 2025-246C
CENTER_NAME    = EARTH
REF_FRAME      = TEME
TIME_SYSTEM    = UTC
MEAN_ELEMENT_THEORY = SGP/SGP4

EPOCH          = 2025-12-14T06:21:31.494240
MEAN_MOTION    = 15.62581213
ECCENTRICITY   = .00062526
INCLINATION    = 41.4775
RA_OF_ASC_NODE = 6.7415
ARG_OF_PERICENTER = 268.4580
MEAN_ANOMALY   = 91.5544

EPHEMERIS_TYPE = 0
CLASSIFICATION_TYPE = U
NORAD_CAT_ID   = 66515
ELEMENT_SET_NO = 999
REV_AT_EPOCH   = 468
BSTAR          = .32565972E-3
MEAN_MOTION_DOT = .2972E-3
MEAN_MOTION_DDOT = 0

