CZ-2C R/B               
1 54039U 22132E   25348.92334679  .00024548  00000+0  36343-3 0  9990
2 54039  97.2943 345.1637 0022769  49.9747 310.3501 15.54965395177170
GSLV R/B                
1 54149U 22138AN  25348.86228953  .00002553  00000+0  22307-3 0  9995
2 54149  87.3830 194.7635 0024181  98.5646 261.8327 14.96144796171248
XRISM                   
1 57800U 23137A   25348.68466462  .00004443  00000+0  25841-3 0  9997
2 57800  31.0013 112.9852 0007719 265.0839  94.8918 15.10360626124922
ACS3                    
1 59588U 24077B   25348.92038268  .00022676  00000+0  19362-1 0  9999
2 59588  97.2653 304.0397 0077095 333.1816  26.5368 13.85612488 82442
SZ-21 MODULE            
1 66515U 25246C   25348.26494785  .00029720  00000+0  32566-3 0  9993
2 66515  41.4775   6.7415 0006252 268.4580  91.5544 15.62581213  4684
